[{"OBJECT_NAME":"GAOFEN-5 02","OBJECT_ID":"2021-079A","EPOCH":"2026-03-09T22:28:30.715104","MEAN_MOTION":14.5772301,"ECCENTRICITY":3.379e-5,"INCLINATION":98.2675,"RA_OF_ASC_NODE":143.9335,"ARG_OF_PERICENTER":339.1436,"MEAN_ANOMALY":20.9749,"EPHEMERIS_TYPE":0,"CLASSIFICATION_TYPE":"U","NORAD_CAT_ID":49122,"ELEMENT_SET_NO":999,"REV_AT_EPOCH":23962,"BSTAR":9.830729e-5,"MEAN_MOTION_DOT":4.03e-6,"MEAN_MOTION_DDOT":0},{"OBJECT_NAME":"NOAA 16 DEB","OBJECT_ID":"2000-055SN","EPOCH":"2026-03-09T00:50:03.382368","MEAN_MOTION":14.57230987,"ECCENTRICITY":0.00344138,"INCLINATION":98.9781,"RA_OF_ASC_NODE":281.4974,"ARG_OF_PERICENTER":32.6566,"MEAN_ANOMALY":327.6749,"EPHEMERIS_TYPE":0,"CLASSIFICATION_TYPE":"U","NORAD_CAT_ID":42394,"ELEMENT_SET_NO":999,"REV_AT_EPOCH":52101,"BSTAR":0.0026144817,"MEAN_MOTION_DOT":0.00011874,"MEAN_MOTION_DDOT":0}]
